#dP2020  6  5  0  0  0.00000000      97 __u+U IGS14 FIT  IAC
## 2108 432000.00000000   900.00000000 59005 0.0000000000000
+  122   C01C02C03C04C05C06C07C08C09C10C11C12C13C14C16C19C20
+        C21C22C23C24C25C26C27C28C29C30C32C33C34C35C36C37C38
+        C39C40C43C44C45C46E01E02E03E04E05E07E08E09E11E12E13
+        E14E15E18E19E21E24E25E26E27E30E31E33E36G02G03G04G05
+        G06G07G08G09G10G11G12G13G14G15G16G17G18G19G20G21G22
+        G23G24G25G26G27G28G29G30G31G32J01J02J03J07R01R02R03
+        R04R05R07R08R09R11R12R13R14R15R16R17R18R19R20R21R22
+        R23R24R26  0  0  0  0  0  0  0  0  0  0  0  0  0  0
++         0  0  0  0  0  0  0  0  0  0  0  0  0  0  0  0  0
++         0  0  0  0  0  0  0  0  0  0  0  0  0  0  0  0  0
++         0  0  0  0  0  0  0  0  0  0  0  0  0  0  0  0  0
++         0  0  0  0  0  0  0  0  0  0  0  0  0  0  0  0  0
++         0  0  0  0  0  0  0  0  0  0  0  0  0  0  0  0  0
++         0  0  0  0  0  0  0  0  0  0  0  0  0  0  0  0  0
++         0  0  0  0  0  0  0  0  0  0  0  0  0  0  0  0  0
++         0  0  0  0  0  0  0  0  0  0  0  0  0  0  0  0  0
%c M  cc GPS ccc cccc cccc cccc cccc ccccc ccccc ccccc ccccc
%c cc cc ccc ccc cccc cccc cccc cccc ccccc ccccc ccccc ccccc
%f  1.2500000  1.025000000  0.00000000000  0.000000000000000
%f  0.0000000  0.000000000  0.00000000000  0.000000000000000
%i    0    0    0    0      0      0      0      0         0
%i    0    0    0    0      0      0      0      0         0
/* INFORMATION & ANALYSIS CENTER (IAC)            FINAL DATA
/* S/V CLOCKS ARE ALIGNED TO GNSS TIME                      
/* G:C1WC2W R:C1PC2P E:C1XC5X C:C2IC6I J:C1CC2S             
/* PCV:IGS14_2101 OL/AL:FES2004  NONE     YN ORB:CoN CLK:CoN
*  2020 06 05  1  0  0.00000000
PC01 -34314.513706  24526.548899    687.159132 999999.999999
PC02   4426.506313  41901.417160  -1389.968891    304.052420
PC03 -14690.026753  39490.330476   -745.605443 999999.999999
PC04 -39588.330304  14497.539328    246.906795   -183.537272
PC05  21913.547058  35993.289659  -1060.092360   -401.109698
PC06 -12754.511172  37379.215298 -13738.866282    746.011505
PC07 -12067.155575  23426.846907  33119.065409    -88.830289
PC08 -25979.297132  26659.890563 -20033.962994   -292.458130
PC09  -2659.644505  41782.251527   3098.686446    588.162984
PC10   4611.057391  29703.809957  29895.281053   -270.962773
PC11  -2539.768207  26131.614525  -9475.734802   -408.271651
PC12 -13644.086198  22806.016960   8579.759942    391.814743
PC13 -11375.588498  27835.895615 -29584.884021    473.400161
PC14   7647.512048  22956.431880 -13920.674180    491.902557
PC16 -10538.816202  39018.243058 -11590.304412   -625.288063
PC19 -15157.377637 -22693.901881   5808.469877    434.128122
PC20    306.364723 -19907.627499  19562.106774   -859.317574
PC21 -16137.181947   5149.515248 -22148.177636   -487.077830
PC22 -22113.863618 -12345.678694 -11668.600713   -791.579687
PC23  25363.179753   3076.743417  11239.265390   -859.807837
PC24 -11176.131325  16433.619943  19593.607537   -800.817266
PC25  10909.646378  13433.039240  21887.709916   -640.920650
PC26 -25100.541008  10380.414831   6464.949335    706.307861
PC27  17041.122808 -15231.266935 -16044.482171    341.999430
PC28  15077.702759   4950.626599 -22955.183493   -219.784890
PC29  -5170.685193 -21962.700030  16413.951915    238.057244
PC30   8217.764421 -26681.723281    -61.846418    327.264310
PC32  16130.821702  -5288.225844  22171.366544   -882.400701
PC33  15277.342961  22632.612821  -5800.198517   -820.093518
PC34  -7977.570767  26724.300686   -425.951829   -781.786700
PC35 -15222.437332  -4684.563075  22908.976659   -811.907253
PC36 -10351.962115 -13756.953296 -21934.493729   -840.169319
PC37  25606.711505  -9412.384807  -5828.551661   -847.576196
PC38 -20717.939273  28732.026695 -22957.963473     81.727084
PC39  -6387.953105  40500.796008  -9551.812624     17.062888
PC40  -1118.137504  24841.424562  34086.141962     49.608605
PC43   4936.928143  22186.422969 -16182.307558   -224.415520
PC44 -16640.671622  15550.375542  16093.926249   -256.921028
PC45 -25359.472072  -2929.454058 -11280.244638 999999.999999
PC46  10569.231781 -16421.991055 -19913.511100    800.684691
PE01  -8613.187496  14576.216953  24278.791517   -871.041996
PE02   8504.682690 -14614.144130 -24296.548719    138.191656
PE03   3904.017724 -24997.940915  15356.568421   -306.316742
PE04   9916.862020  27809.866461   2147.297195   -539.418230
PE05  15580.109116  -7493.906382  24034.465571   -374.338047
PE07 -18062.462681 -14248.738485 -18604.991408   -391.334740
PE08 -10195.188527 -27681.089964  -2336.615424   6168.360431
PE09  18076.530725  14081.150606  18759.379708   6038.836087
PE11  18086.021912   3003.005604 -23252.784360   3259.921366
PE12   1857.180094  19498.168281 -22188.215485   5771.041635
PE13 -17877.584461  -3135.267575  23381.657142    401.355249
PE14  17952.045611 -14401.604464 -21204.173139  -1038.323024
PE15  -2057.204041 -19340.453439  22319.416146    864.633497
PE18  -8656.193115  22612.760962   9052.299266  -1138.664405
PE19  -5258.295449  23715.974160 -16902.614391  -3163.295682
PE21 -25539.390870   3878.585329  14446.247494   -602.795311
PE24  27677.045887   9581.957495   4211.861693   5419.347955
PE25  25616.098825  -3787.199440 -14339.180873   -511.661333
PE26 -23322.149629  15048.734674  10284.300474   3109.751603
PE27 -27819.889480  -9293.094204  -3991.314013    205.278915
PE30 -13283.710721 -17113.900062 -20183.336061   3851.773739
PE31  13748.349463  16948.811812  20005.317153   -472.762740
PE33 -14978.478716  24189.356547  -8145.351408   -466.477918
PE36  23213.665549 -14925.787166 -10711.813164    551.135960
PG02  22159.449270 -14416.309974  -1583.952063   -467.074718
PG03   2152.912178  17126.529116 -20273.764861   -198.489609
PG04   -329.884734  26540.095121   -239.295233    -98.377731
PG05  17807.375656  -5954.789828  18723.520630    -14.019691
PG06  23078.306887  -4443.691313 -12361.863537   -283.500715
PG07  10218.797373  11898.267576  21774.844020   -297.086540
PG08  -7025.847827  22700.743402  11604.708134    -36.422828
PG09   8299.179766  23003.324687  10296.994732   -230.419672
PG10 -24035.032651 -11424.161822  -1954.668828   -361.872357
PG11 -11028.958479  24059.993980  -4225.854337   -257.753380
PG12   -700.137854 -16968.547603 -20698.911456    109.832459
PG13  12924.085197 -16381.913505  16259.340616     15.669369
PG14 -15104.318076   1059.261157 -21462.265292     -8.154563
PG15   4752.498880 -23621.718092  10426.304144   -226.454985
PG16 -16594.046209   5142.722172  20004.603319   -166.553851
PG17  13389.741753   9316.533030 -20552.332868    275.779890
PG18  -9262.798762 -12078.751252  21758.004483    210.894754
PG19  14892.961503    493.648564 -22288.379373   -149.485504
PG20 -19721.884379 -15108.421544   9618.222020    527.575452
PG21 -15947.065813  -6811.253199  20823.646758      7.548990
PG22  -6900.118122  14178.473241 -21159.546498   -779.526547
PG23  11946.961852  18347.963344  15166.440532   -108.470917
PG24   9190.475640 -19874.603097 -14969.784289    -13.909714
PG25 -11228.458899 -18529.893750 -15777.166808     10.061866
PG26 -23814.858475  -2463.956845  11699.514109    219.446613
PG27 -12358.419713  13628.660289  18882.459063   -312.167238
PG28  22888.057758  12791.422295  -3112.032904    711.455883
PG29  -3819.572220 -25194.794714   7391.671268   -120.517166
PG30  19408.713310   3993.340115  17828.201650   -234.937364
PG31 -23996.979852   5091.097549 -10777.474355    -47.015087
PG32 -14800.616282  -7740.154653 -20599.253708    294.035909
PJ01 -21204.456917  20238.062372 -25701.798301   -292.437470
PJ02 -29871.744926  22769.185743  23945.126016     -0.348087
PJ03 -29001.631230  27097.720615  19170.621468     -3.734209
PJ07 -25371.704572  33671.778378    -48.364022      0.001421
PR01 -13028.309744   -780.930596 -21905.176222     62.590600
PR02    418.485419  17598.073151 -18391.386149    430.060913
PR03  11729.353959  22370.746318  -3330.624019     16.233895
PR04  16183.356575  14413.321620  13485.599313     51.597936
PR05  11485.383153  -1648.999749  22729.764324     51.731852
PR07 -11959.544877 -22376.047577   2872.706418    -37.251664
PR08 -16198.039716 -14464.819326 -13333.102616    -52.654417
PR09   5863.226994 -11049.982623 -22227.157993    136.321464
PR11 -23742.048870  -3503.233375  -8555.793036    -25.982802
PR12 -23737.077281   4501.612682   8237.133173    136.461207
PR13 -10014.599888  10346.634694  21036.892727    -39.601572
PR14   9611.210331  10038.126679  21405.006318     51.938013
PR15  23370.822704   3971.017888   9441.303675    106.634794
PR16  23304.922958  -5290.563517  -8770.676584     -3.942339
PR17  -1161.401016  18547.132927 -17488.122424    330.477930
PR18   9582.249642   4305.797264 -23236.491079     37.749332
PR19  15411.217934 -11351.769882 -16865.440731    -96.489125
PR20  12438.310796 -22255.209306   1391.137429   -413.457831
PR21    580.873554 -17896.071672  18151.890394   -129.198757
PR22 -10723.224601  -1998.096841  23047.225804   -144.401012
PR23 -15356.751499  16933.024810  11302.445070    310.072058
PR24 -11931.504878  22453.291878  -2093.808836      1.458988
PR26  13716.075240 -21204.278287  -3489.433513   -393.556647
EOF
